#dP2022 11 11 12  0  0.00000000      96 __u+U ITR00 EXT  IAC
## 2235 475200.00000000   900.00000000 59894 0.5000000000000
+  115   C06C07C08C09C10C11C12C13C14C16C19C20C21C22C23C24C25
+        C26C27C28C29C30C32C33C34C35C36C37C38C39C40C41C42C43
+        C44C45C46E01E02E03E04E05E08E09E10E11E12E13E14E15E18
+        E19E21E24E25E26E27E30E31E33E34E36G01G03G04G05G06G07
+        G08G09G10G11G12G13G14G15G16G17G18G19G20G21G22G23G24
+        G25G26G27G29G30G31G32J02J03J04R01R02R03R04R05R07R08
+        R09R11R12R13R14R15R17R18R19R20R21R22R24  0  0  0  0
++        10 10  9 11  8  7  8  7  9  9  9  8  9 10  9  7  8
++         8  7  8  9 10  8  8  8  9 10  8 10 11 11  7  9  9
++         8 10 10  9  8  7  7  8  7  7  7 11 11  8  6 10  9
++         7  9  8  8  9  8  8  7  9 10  8  8  7  8  8  8  8
++         8  8  8  6  7  7  9  6  9  8  8  9  8  8  7  8  8
++         7  8  9  8  7  7  8 11 11 10  9  8  7  8  7  7  9
++         8  8  8  8  7 10  8  7  9  9  9  9  8  0  0  0  0
%c M  cc GPS ccc cccc cccc cccc cccc ccccc ccccc ccccc ccccc
%c cc cc ccc ccc cccc cccc cccc cccc ccccc ccccc ccccc ccccc
%f  0.0000000  0.000000000  0.00000000000  0.000000000000000
%f  0.0000000  0.000000000  0.00000000000  0.000000000000000
%i    0    0    0    0      0      0      0      0         0
%i    0    0    0    0      0      0      0      0         0
/* IAC                                ULTRA-RAPID PREDICTION
/* S/V CLOCKS ARE ALIGNED TO GNSS TIME                      
/* G:C1WC2W R:C1PC2P E:C1XC5X C:C2IC6I J:C1CC2S             
/* PCV:IGS14_2233 OL/AL:FES2004  NONE     YN ORB:CoN CLK:CoN
*  2022 11 11 19  0  0.00000000
PC06  -6145.913578  23955.514559 -34143.988982      3.213880
PC07 -16938.993417  36028.565625  13712.396014    228.136724
PC08  -2240.963359  37717.663884  18914.459238    510.260222
PC09   4040.235312  26321.705873 -32184.392512   -809.848232
PC10  -9589.459237  35832.124365  19893.212628     69.839851
PC11  27418.529229   4778.011719  -2206.138511   -298.178397
PC12  19335.081366  13992.750822  14521.142005    297.331749
PC13   3788.035917  40813.577269  10641.318874    130.749928
PC14  20403.516868  -3990.320722 -18628.853586    644.500018
PC16 -11717.548171  21319.026325 -34276.894399    118.212986
PC19 -21790.401553  12885.222659  11745.810001   -915.616743
PC20 -16612.132164  -3898.473399  22080.794947    840.193130
PC21   1011.911160  19567.853079 -19857.785449   -800.476589
PC22 -14630.723457  23005.455754  -5918.536941   -799.329518
PC23   5551.856350 -21482.756353  16921.330377   -878.674422
PC24  16771.462964  17001.709139  14450.450450   -820.783723
PC25  15544.541649  -4828.471373  22658.901317     23.192119
PC26   9264.614308  26340.235319   -538.539097    -34.504251
PC27 -10963.044712 -16335.291128 -19810.493798     49.862804
PC28   9221.581475 -13919.071507 -22353.591579     34.838296
PC29 -25208.455005   3765.784727  11358.114390     39.175031
PC30 -25558.849825  -9033.347053  -6666.608064      0.924468
PC32  -1076.716994 -19635.994867  19807.130872   -722.147780
PC33  21730.156486 -12937.219302 -11811.449615   -914.033746
PC34  26017.487496   8395.578599   5548.329161     37.098638
PC35 -10458.310121  13748.951568  21917.268199     83.708083
PC36 -15855.554060   3796.669319 -22625.493629   -848.766396
PC37  -7773.679382 -26724.491908   1816.707588   -806.556221
PC38  -7718.142417  33708.279422  24275.402762     37.453886
PC39 -15860.282697  20058.964953 -33548.998745     -0.831239
PC40 -24836.345141  31804.015566  11867.281318     -7.892406
PC41  14895.074698 -22977.875776   5410.378359   -265.743962
PC42  15925.331047   5036.633848 -22322.324843   -645.020318
PC43  25572.414464  -3240.212103 -10674.159044     24.461382
PC44  11282.801178  16064.164604  19815.928191    110.717273
PC45  -5190.356175  21736.426533 -16730.973136    -21.171031
PC46 -17089.329022 -15331.706453 -15833.456996    -12.339132
PE01  15389.901298 -19457.918843  16144.099477   -564.105822
PE02 -15312.850262  19678.174968 -15967.578599      1.991907
PE03 -24055.580874  14688.994415  -9038.902742   -618.990485
PE04   6479.380177 -18570.251736  22117.720395  -1156.433500
PE05 -27897.101495   2065.544842   9676.176719   -125.623266
PE08  -6461.791519  18466.389591 -22218.116060   -630.714939
PE09 -15221.156400 -11509.472259  22619.179541   -725.657163
PE10 -12993.134792 -22937.774569 -13450.587587   -490.126538
PE11 -20443.522107 -21124.632857  -3488.845534   1373.248652
PE12  -4011.057506 -21145.291771 -20322.648536   -271.685310
PE13  19995.688783  21385.358850   4380.702243    430.611923
PE14 -13799.822964  13672.238782  13158.862308     53.829215
PE15   3817.582891  20985.346129  20534.030341    708.084541
PE18  16643.523558 -19583.488593 -19892.703690   -754.677784
PE19  25608.273896 -13275.226572   6629.176125  -4022.893970
PE21  16956.997994   -154.353520  24263.746351   -494.065441
PE24  -8411.470227 -21489.160940 -18531.421715   -941.915783
PE25 -16904.623849   -181.701279 -24289.765680   -592.442428
PE26  24180.955677   8501.448716 -14807.576133  -1833.648436
PE27   9019.823475  20710.632570  19141.817158   -437.227941
PE30  -4782.572489  29150.035905   2044.585296   -990.475152
PE31   4156.281193 -29168.649208  -2788.060482   -507.937253
PE33  14506.296495  -8198.946566 -24457.091943   -455.457460
PE34 -14341.285335   8392.948560  24492.363536    -14.110153
PE36 -24285.705470  -9236.557193  14184.663540   -459.388579
PG01 -21001.754221 -12548.561591  10445.221648    253.289208
PG03 -13779.606877  -5601.384193  21885.696175   -372.147601
PG04 -24633.444325  -1920.292599   9885.252320    -88.173124
PG05   8225.615591  18128.664924 -17695.982589   -103.926839
PG06   -142.874574  18332.229396  19253.768923    515.707591
PG07 -17632.949603   1660.900709 -19514.932374    288.593691
PG08 -17918.206318  -8201.241098 -18018.754192    -93.336635
PG09 -25481.729978   7523.427054  -1004.100489   -270.152057
PG10  11342.226130 -22814.682075  -6741.604782    -11.482506
PG11   9859.069450  22429.901278  10307.647628    -38.244283
PG12  13223.282428   7181.441270  21623.881178   -303.085606
PG13   9902.948731  13410.331219 -20893.481156    422.796596
PG14 -13418.406076  21191.867601  -8549.633324    -84.322815
PG15  18934.531663   6886.377317 -17890.057614    -13.256769
PG16  -2410.597107 -21870.017792 -14817.296402   -526.898350
PG17 -18796.360016  13003.516433  14032.803542    677.016711
PG18  15971.359600  -3688.436806 -20929.473079    -18.356831
PG19  -8364.346061  14834.901587  20077.415376    236.032687
PG20   1475.908121  25863.779298  -6366.989343    470.932138
PG21 -21357.373454 -16334.938785   2770.432795    156.252938
PG22   4827.114221 -15755.784736  21219.459518    362.683844
PG23  15145.681623 -14762.069015 -15987.499300     -1.077012
PG24  22084.439935  13888.149809   5723.961599     63.124782
PG25  16189.256950  -5268.869543  20018.367162    391.617435
PG26   2979.101853 -25944.625296  -3824.862756    235.478415
PG27  -6177.911905 -13981.571919 -21964.553380    180.159495
PG29  26300.361666  -3970.238804    550.988289   -566.507555
PG30  -8995.866677  13171.436323 -21123.189632   -536.794001
PG31   -364.000815 -19236.975972  17949.762017   -199.870800
PG32  15426.351802 -15119.259531  15472.461053   -292.964782
PJ02 -22321.831394  32059.799330 -11072.256550     -0.117851
PJ03 -27782.288467  22479.548565  27513.573084     -4.465694
PJ04 -32498.910750  26856.112357   8450.661488    112.865860
PR01  -6238.208020  16641.321633 -18301.724838     17.711702
PR02  10504.985159   5274.823152 -22593.747768    -23.296937
PR03  20321.522302  -8344.157988 -12871.707648     67.119907
PR04  18704.370402 -16914.377716   3794.626611    164.544151
PR05   6887.006637 -16257.660878  18399.873778    102.751182
PR07 -20571.602313   8869.470183  12282.512679     44.142663
PR08 -18617.180512  17033.155521  -3809.909210    -68.042135
PR09 -10513.972241 -17991.794118 -14746.777229     87.043346
PR11  -6165.356713  16437.906873 -18489.353063     21.118504
PR12   2936.582284  25266.169935  -2027.349380     22.770642
PR13   9799.207607  19228.491872  13587.392729    -28.768720
PR14  11303.685954    528.882370  22871.686232     24.124085
PR15   6008.987256 -17248.455368  17825.881502     92.783210
PR17  23147.231205   4523.045270  -9761.957925    577.217573
PR18  12745.341747  -5165.992730 -21452.201649     51.511130
PR19  -2525.471050 -11986.892568 -22366.474379   -210.607382
PR20 -20145.098785 -13143.091983  -8528.515862    -81.963778
PR21 -22546.332958  -3721.223223  11305.982217   -348.913756
PR22 -12466.351548   5473.870766  21602.324895     15.726074
PR24  20782.676052  12553.103156   7879.741504    125.892877
EOF
